{"type": "FeatureCollection", "features": [ {"type": "Feature", "properties": {"norad_id": 38755, "name": "SPOT 6", "group": "resource", "lat": 29.960263845566615, "lon": -121.3503036087208, "alt_km": 695.653682572165, "timestamp": "2025-12-15T04:01:20.099649+00:00", "meta": {"OBJECT_NAME": "SPOT 6", "OBJECT_ID": "2012-047A", "EPOCH": "2025-12-14T07:34:55.710912", "MEAN_MOTION": 14.5860618, "ECCENTRICITY": 0.00011582, "INCLINATION": 98.157, "RA_OF_ASC_NODE": 53.0713, "ARG_OF_PERICENTER": 99.2965, "MEAN_ANOMALY": 260.8365, "EPHEMERIS_TYPE": 0, "CLASSIFICATION_TYPE": "U", "NORAD_CAT_ID": 38755, "ELEMENT_SET_NO": 999, "REV_AT_EPOCH": 70610, "BSTAR": 0.00016755611, "MEAN_MOTION_DOT": 7.35e-06, "MEAN_MOTION_DDOT": 0}, "tle": {"line1": "1 38755U 12047A   25348.31592258  .00000735  00000+0  16756-3 0  9991", "line2": "2 38755  98.1570  53.0713 0001158  99.2965 260.8365 14.58606180706107"}}, "geometry": {"type": "Point", "coordinates": [-121.3503036087208, 29.960263845566615]}}, {"type": "Feature", "properties": {"norad_id": 39019, "name": "PLEIADES 1B", "group": "resource", "lat": 46.99920917619072, "lon": 52.90845588719098, "alt_km": 692.9742933398247, "timestamp": "2025-12-15T04:01:20.099660+00:00", "meta": {"OBJECT_NAME": "PLEIADES 1B", "OBJECT_ID": "2012-068A", "EPOCH": "2025-12-14T08:02:50.523072", "MEAN_MOTION": 14.58555934, "ECCENTRICITY": 0.00012153, "INCLINATION": 98.179, "RA_OF_ASC_NODE": 60.9614, "ARG_OF_PERICENTER": 84.3228, "MEAN_ANOMALY": 275.811, "EPHEMERIS_TYPE": 0, "CLASSIFICATION_TYPE": "U", "NORAD_CAT_ID": 39019, "ELEMENT_SET_NO": 999, "REV_AT_EPOCH": 69390, "BSTAR": 0.00017057376, "MEAN_MOTION_DOT": 7.47e-06, "MEAN_MOTION_DDOT": 0}, "tle": {"line1": "1 39019U 12068A   25348.33530698  .00000747  00000+0  17057-3 0  9998", "line2": "2 39019  98.1790  60.9614 0001215  84.3228 275.8110 14.58555934693900"}}, "geometry": {"type": "Point", "coordinates": [52.90845588719098, 46.99920917619072]}}, {"type": "Feature", "properties": {"norad_id": 39030, "name": "GOKTURK 2", "group": "resource", "lat": 48.390419136920045, "lon": -178.0487063023924, "alt_km": 639.4489648239396, "timestamp": "2025-12-15T04:01:20.099670+00:00", "meta": {"OBJECT_NAME": "GOKTURK 2", "OBJECT_ID": "2012-073A", "EPOCH": "2025-12-14T08:16:03.355392", "MEAN_MOTION": 14.75295588, "ECCENTRICITY": 0.00010466, "INCLINATION": 97.6896, "RA_OF_ASC_NODE": 189.9192, "ARG_OF_PERICENTER": 105.4001, "MEAN_ANOMALY": 254.7325, "EPHEMERIS_TYPE": 0, "CLASSIFICATION_TYPE": "U", "NORAD_CAT_ID": 39030, "ELEMENT_SET_NO": 999, "REV_AT_EPOCH": 69725, "BSTAR": 0.00018396073, "MEAN_MOTION_DOT": 1.199e-05, "MEAN_MOTION_DDOT": 0}, "tle": {"line1": "1 39030U 12073A   25348.34448328  .00001199  00000+0  18396-3 0  9995", "line2": "2 39030  97.6896 189.9192 0001046 105.4001 254.7325 14.75295588697254"}}, "geometry": {"type": "Point", "coordinates": [-178.0487063023924, 48.390419136920045]}}, {"type": "Feature", "properties": {"norad_id": 39084, "name": "LANDSAT 8", "group": "resource", "lat": -25.03689567987159, "lon": -126.66028966753686, "alt_km": 708.4519973829556, "timestamp": "2025-12-15T04:01:20.099681+00:00", "meta": {"OBJECT_NAME": "LANDSAT 8", "OBJECT_ID": "2013-008A", "EPOCH": "2025-12-14T07:18:24.258816", "MEAN_MOTION": 14.57115872, "ECCENTRICITY": 0.00010818, "INCLINATION": 98.2072, "RA_OF_ASC_NODE": 56.3548, "ARG_OF_PERICENTER": 89.6772, "MEAN_ANOMALY": 270.455, "EPHEMERIS_TYPE": 0, "CLASSIFICATION_TYPE": "U", "NORAD_CAT_ID": 39084, "ELEMENT_SET_NO": 999, "REV_AT_EPOCH": 67097, "BSTAR": 0.00013509341, "MEAN_MOTION_DOT": 5.63e-06, "MEAN_MOTION_DDOT": 0}, "tle": {"line1": "1 39084U 13008A   25348.30444744  .00000563  00000+0  13509-3 0  9992", "line2": "2 39084  98.2072  56.3548 0001081  89.6772 270.4550 14.57115872670977"}}, "geometry": {"type": "Point", "coordinates": [-126.66028966753686, -25.03689567987159]}}, {"type": "Feature", "properties": {"norad_id": 39086, "name": "SARAL", "group": "resource", "lat": -21.544075350015433, "lon": 176.47108227352544, "alt_km": 788.9845672625961, "timestamp": "2025-12-15T04:01:20.099691+00:00", "meta": {"OBJECT_NAME": "SARAL", "OBJECT_ID": "2013-009A", "EPOCH": "2025-12-14T08:00:40.194720", "MEAN_MOTION": 14.32757669, "ECCENTRICITY": 0.0002897, "INCLINATION": 98.5503, "RA_OF_ASC_NODE": 172.2434, "ARG_OF_PERICENTER": 105.6923, "MEAN_ANOMALY": 254.4581, "EPHEMERIS_TYPE": 0, "CLASSIFICATION_TYPE": "U", "NORAD_CAT_ID": 39086, "ELEMENT_SET_NO": 999, "REV_AT_EPOCH": 66913, "BSTAR": 8.0719932e-05, "MEAN_MOTION_DOT": 1.76e-06, "MEAN_MOTION_DDOT": 0}, "tle": {"line1": "1 39086U 13009A   25348.33379855  .00000176  00000+0  80720-4 0  9998", "line2": "2 39086  98.5503 172.2434 0002897 105.6923 254.4581 14.32757669669137"}}, "geometry": {"type": "Point", "coordinates": [176.47108227352544, -21.544075350015433]}}, {"type": "Feature", "properties": {"norad_id": 39150, "name": "GAOFEN-1", "group": "resource", "lat": 41.41854885048671, "lon": -113.1505696048948, "alt_km": 624.1069049412808, "timestamp": "2025-12-15T04:01:20.099701+00:00", "meta": {"OBJECT_NAME": "GAOFEN-1", "OBJECT_ID": "2013-018A", "EPOCH": "2025-12-14T07:52:59.171232", "MEAN_MOTION": 14.76539734, "ECCENTRICITY": 0.00183239, "INCLINATION": 97.9324, "RA_OF_ASC_NODE": 58.9596, "ARG_OF_PERICENTER": 138.1085, "MEAN_ANOMALY": 222.1531, "EPHEMERIS_TYPE": 0, "CLASSIFICATION_TYPE": "U", "NORAD_CAT_ID": 39150, "ELEMENT_SET_NO": 999, "REV_AT_EPOCH": 68096, "BSTAR": 0.00020346301, "MEAN_MOTION_DOT": 1.371e-05, "MEAN_MOTION_DDOT": 0}, "tle": {"line1": "1 39150U 13018A   25348.32846263  .00001371  00000+0  20346-3 0  9996", "line2": "2 39150  97.9324  58.9596 0018323 138.1085 222.1531 14.76539734680963"}}, "geometry": {"type": "Point", "coordinates": [-113.1505696048948, 41.41854885048671]}}, {"type": "Feature", "properties": {"norad_id": 39160, "name": "VNREDSAT 1", "group": "resource", "lat": 77.89357962131153, "lon": -95.06892440014059, "alt_km": 669.1730434287756, "timestamp": "2025-12-15T04:01:20.099711+00:00", "meta": {"OBJECT_NAME": "VNREDSAT 1", "OBJECT_ID": "2013-021B", "EPOCH": "2025-12-14T07:53:59.750592", "MEAN_MOTION": 14.64927055, "ECCENTRICITY": 0.00012816, "INCLINATION": 97.9372, "RA_OF_ASC_NODE": 43.5482, "ARG_OF_PERICENTER": 79.3823, "MEAN_ANOMALY": 280.7525, "EPHEMERIS_TYPE": 0, "CLASSIFICATION_TYPE": "U", "NORAD_CAT_ID": 39160, "ELEMENT_SET_NO": 999, "REV_AT_EPOCH": 67322, "BSTAR": 0.00021539669, "MEAN_MOTION_DOT": 1.107e-05, "MEAN_MOTION_DDOT": 0}, "tle": {"line1": "1 39160U 13021B   25348.32916378  .00001107  00000+0  21540-3 0  9990", "line2": "2 39160  97.9372  43.5482 0001281  79.3823 280.7525 14.64927055673220"}}, "geometry": {"type": "Point", "coordinates": [-95.06892440014059, 77.89357962131153]}}, {"type": "Feature", "properties": {"norad_id": 39227, "name": "ARIRANG-5 (KOMPSAT-5)", "group": "resource", "lat": 16.735930166367165, "lon": -4.258175299860648, "alt_km": 554.6898213378627, "timestamp": "2025-12-15T04:01:20.099722+00:00", "meta": {"OBJECT_NAME": "ARIRANG-5 (KOMPSAT-5)", "OBJECT_ID": "2013-042A", "EPOCH": "2025-12-14T08:08:45.653856", "MEAN_MOTION": 15.04514337, "ECCENTRICITY": 0.00035761, "INCLINATION": 97.6147, "RA_OF_ASC_NODE": 172.6203, "ARG_OF_PERICENTER": 50.5012, "MEAN_ANOMALY": 309.653, "EPHEMERIS_TYPE": 0, "CLASSIFICATION_TYPE": "U", "NORAD_CAT_ID": 39227, "ELEMENT_SET_NO": 999, "REV_AT_EPOCH": 67606, "BSTAR": 0.0001745685, "MEAN_MOTION_DOT": 2.384e-05, "MEAN_MOTION_DDOT": 0}, "tle": {"line1": "1 39227U 13042A   25348.33941729  .00002384  00000+0  17457-3 0  9996", "line2": "2 39227  97.6147 172.6203 0003576  50.5012 309.6530 15.04514337676068"}}, "geometry": {"type": "Point", "coordinates": [-4.258175299860648, 16.735930166367165]}}, {"type": "Feature", "properties": {"norad_id": 39418, "name": "SKYSAT-A", "group": "resource", "lat": -57.35630984776263, "lon": -152.42139004044648, "alt_km": 524.2817740519513, "timestamp": "2025-12-15T04:01:20.099733+00:00", "meta": {"OBJECT_NAME": "SKYSAT-A", "OBJECT_ID": "2013-066C", "EPOCH": "2025-12-14T03:08:27.850560", "MEAN_MOTION": 15.11618843, "ECCENTRICITY": 0.00207092, "INCLINATION": 97.4113, "RA_OF_ASC_NODE": 38.2972, "ARG_OF_PERICENTER": 231.2859, "MEAN_ANOMALY": 128.652, "EPHEMERIS_TYPE": 0, "CLASSIFICATION_TYPE": "U", "NORAD_CAT_ID": 39418, "ELEMENT_SET_NO": 999, "REV_AT_EPOCH": 66051, "BSTAR": 0.00024023595, "MEAN_MOTION_DOT": 4.038e-05, "MEAN_MOTION_DDOT": 0}, "tle": {"line1": "1 39418U 13066C   25348.13087790  .00004038  00000+0  24024-3 0  9997", "line2": "2 39418  97.4113  38.2972 0020709 231.2859 128.6520 15.11618843660511"}}, "geometry": {"type": "Point", "coordinates": [-152.42139004044648, -57.35630984776263]}}, {"type": "Feature", "properties": {"norad_id": 39419, "name": "DUBAISAT-2", "group": "resource", "lat": -8.16467785325404, "lon": -19.424582831881548, "alt_km": 539.5486449958016, "timestamp": "2025-12-15T04:01:20.099744+00:00", "meta": {"OBJECT_NAME": "DUBAISAT-2", "OBJECT_ID": "2013-066D", "EPOCH": "2025-12-14T07:21:40.501728", "MEAN_MOTION": 15.08384291, "ECCENTRICITY": 0.00103867, "INCLINATION": 97.4457, "RA_OF_ASC_NODE": 338.6658, "ARG_OF_PERICENTER": 316.2814, "MEAN_ANOMALY": 43.7591, "EPHEMERIS_TYPE": 0, "CLASSIFICATION_TYPE": "U", "NORAD_CAT_ID": 39419, "ELEMENT_SET_NO": 999, "REV_AT_EPOCH": 65850, "BSTAR": 0.00044803402, "MEAN_MOTION_DOT": 6.914e-05, "MEAN_MOTION_DDOT": 0}, "tle": {"line1": "1 39419U 13066D   25348.30671877  .00006914  00000+0  44803-3 0  9994", "line2": "2 39419  97.4457 338.6658 0010386 316.2814  43.7591 15.08384291658500"}}, "geometry": {"type": "Point", "coordinates": [-19.424582831881548, -8.16467785325404]}}]}